STARLINK-1859
1 17146C 20088AA  21326.12990952  .00736664  00000-0  24168-1 0  3269
2 17146  53.0566 151.8260 0001496  64.1443 326.9028 15.30323816    17
